{
  "type": "FeatureCollection",
  "features": [
    {
      "type": "Feature",
      "properties": {
        "norad_id": 30646,
        "name": "FENGYUN 1C DEB",
        "group": "fengyun-1c-debris",
        "lat": 4.690020873976194,
        "lon": 11.979509601040206,
        "alt_km": 828.720261383567,
        "timestamp": "2025-12-18T08:58:43.689425+00:00",
        "meta_object_name": "FENGYUN 1C DEB",
        "meta_object_id": "1999-025APD",
        "meta_epoch": "2025-12-17T19:19:43.529952",
        "meta_mean_motion": 14.0966391,
        "meta_eccentricity": 0.00479976,
        "meta_inclination": 98.6518,
        "meta_ra_of_asc_node": 12.1486,
        "meta_arg_of_pericenter": 17.8955,
        "meta_mean_anomaly": 342.3893,
        "meta_ephemeris_type": 0,
        "meta_classification_type": "U",
        "meta_norad_cat_id": 30646,
        "meta_element_set_no": 999,
        "meta_rev_at_epoch": 96676,
        "meta_bstar": 0.00054786683,
        "meta_mean_motion_dot": 9.29e-06,
        "meta_mean_motion_ddot": 0,
        "tle_line1": "1 30646U 99025APD 25351.80536493  .00000929  00000+0  54787-3 0  9991",
        "tle_line2": "2 30646  98.6518  12.1486 0047997  17.8955 342.3893 14.09663910966766"
      },
      "geometry": {
        "type": "Point",
        "coordinates": [
          11.979509601040206,
          4.690020873976194
        ]
      }
    },
    {
      "type": "Feature",
      "properties": {
        "norad_id": 30647,
        "name": "FENGYUN 1C DEB",
        "group": "fengyun-1c-debris",
        "lat": -25.867700245446212,
        "lon": -70.74391668692127,
        "alt_km": 730.7836832063795,
        "timestamp": "2025-12-18T08:58:43.689435+00:00",
        "meta_object_name": "FENGYUN 1C DEB",
        "meta_object_id": "1999-025APE",
        "meta_epoch": "2025-12-17T07:18:41.916384",
        "meta_mean_motion": 14.56560791,
        "meta_eccentricity": 0.00295417,
        "meta_inclination": 98.9896,
        "meta_ra_of_asc_node": 283.7016,
        "meta_arg_of_pericenter": 159.6055,
        "meta_mean_anomaly": 329.6225,
        "meta_ephemeris_type": 0,
        "meta_classification_type": "U",
        "meta_norad_cat_id": 30647,
        "meta_element_set_no": 999,
        "meta_rev_at_epoch": 98055,
        "meta_bstar": 0.0016306316,
        "meta_mean_motion_dot": 7.258e-05,
        "meta_mean_motion_ddot": 0,
        "tle_line1": "1 30647U 99025APE 25351.30465181  .00007258  00000+0  16306-2 0  9998",
        "tle_line2": "2 30647  98.9896 283.7016 0029541 159.6055 329.6225 14.56560791980550"
      },
      "geometry": {
        "type": "Point",
        "coordinates": [
          -70.74391668692127,
          -25.867700245446212
        ]
      }
    },
    {
      "type": "Feature",
      "properties": {
        "norad_id": 30648,
        "name": "FENGYUN 1C DEB",
        "group": "fengyun-1c-debris",
        "lat": -47.63374409726439,
        "lon": 96.75335990871761,
        "alt_km": 761.0294574297386,
        "timestamp": "2025-12-18T08:58:43.689445+00:00",
        "meta_object_name": "FENGYUN 1C DEB",
        "meta_object_id": "1999-025APF",
        "meta_epoch": "2025-12-17T00:51:45.017280",
        "meta_mean_motion": 14.48186665,
        "meta_eccentricity": 0.0034169,
        "meta_inclination": 98.6413,
        "meta_ra_of_asc_node": 85.7873,
        "meta_arg_of_pericenter": 115.0017,
        "meta_mean_anomaly": 64.3077,
        "meta_ephemeris_type": 0,
        "meta_classification_type": "U",
        "meta_norad_cat_id": 30648,
        "meta_element_set_no": 999,
        "meta_rev_at_epoch": 97928,
        "meta_bstar": 0.0015835771,
        "meta_mean_motion_dot": 5.904e-05,
        "meta_mean_motion_ddot": 0,
        "tle_line1": "1 30648U 99025APF 25351.03593770  .00005904  00000+0  15836-2 0  9998",
        "tle_line2": "2 30648  98.6413  85.7873 0034169 115.0017  64.3077 14.48186665979281"
      },
      "geometry": {
        "type": "Point",
        "coordinates": [
          96.75335990871761,
          -47.63374409726439
        ]
      }
    },
    {
      "type": "Feature",
      "properties": {
        "norad_id": 30649,
        "name": "FENGYUN 1C DEB",
        "group": "fengyun-1c-debris",
        "lat": 79.9564184985137,
        "lon": 26.630101861845834,
        "alt_km": 773.0552572049373,
        "timestamp": "2025-12-18T08:58:43.689455+00:00",
        "meta_object_name": "FENGYUN 1C DEB",
        "meta_object_id": "1999-025APG",
        "meta_epoch": "2025-12-17T18:10:04.818144",
        "meta_mean_motion": 14.29574601,
        "meta_eccentricity": 0.0051276,
        "meta_inclination": 98.8096,
        "meta_ra_of_asc_node": 87.1227,
        "meta_arg_of_pericenter": 157.1039,
        "meta_mean_anomaly": 354.4491,
        "meta_ephemeris_type": 0,
        "meta_classification_type": "U",
        "meta_norad_cat_id": 30649,
        "meta_element_set_no": 999,
        "meta_rev_at_epoch": 97135,
        "meta_bstar": 0.0013757116,
        "meta_mean_motion_dot": 3.526e-05,
        "meta_mean_motion_ddot": 0,
        "tle_line1": "1 30649U 99025APG 25351.75700021  .00003526  00000+0  13757-2 0  9995",
        "tle_line2": "2 30649  98.8096  87.1227 0051276 157.1039 354.4491 14.29574601971352"
      },
      "geometry": {
        "type": "Point",
        "coordinates": [
          26.630101861845834,
          79.9564184985137
        ]
      }
    },
    {
      "type": "Feature",
      "properties": {
        "norad_id": 30650,
        "name": "FENGYUN 1C DEB",
        "group": "fengyun-1c-debris",
        "lat": 51.84818360632867,
        "lon": -134.95893304797792,
        "alt_km": 805.0709589663966,
        "timestamp": "2025-12-18T08:58:43.689465+00:00",
        "meta_object_name": "FENGYUN 1C DEB",
        "meta_object_id": "1999-025APH",
        "meta_epoch": "2025-12-17T15:58:46.649280",
        "meta_mean_motion": 14.13962242,
        "meta_eccentricity": 0.00723196,
        "meta_inclination": 99.2046,
        "meta_ra_of_asc_node": 32.3998,
        "meta_arg_of_pericenter": 176.0347,
        "meta_mean_anomaly": 308.2485,
        "meta_ephemeris_type": 0,
        "meta_classification_type": "U",
        "meta_norad_cat_id": 30650,
        "meta_element_set_no": 999,
        "meta_rev_at_epoch": 96368,
        "meta_bstar": 0.0011523494,
        "meta_mean_motion_dot": 2.197e-05,
        "meta_mean_motion_ddot": 0,
        "tle_line1": "1 30650U 99025APH 25351.66581770  .00002197  00000+0  11523-2 0  9997",
        "tle_line2": "2 30650  99.2046  32.3998 0072319 176.0347 308.2485 14.13962242963686"
      },
      "geometry": {
        "type": "Point",
        "coordinates": [
          -134.95893304797792,
          51.84818360632867
        ]
      }
    },
    {
      "type": "Feature",
      "properties": {
        "norad_id": 30652,
        "name": "FENGYUN 1C DEB",
        "group": "fengyun-1c-debris",
        "lat": 64.01231612723147,
        "lon": 6.85919095770041,
        "alt_km": 865.9578349173271,
        "timestamp": "2025-12-18T08:58:43.689475+00:00",
        "meta_object_name": "FENGYUN 1C DEB",
        "meta_object_id": "1999-025APJ",
        "meta_epoch": "2025-12-17T14:29:24.653184",
        "meta_mean_motion": 14.07807297,
        "meta_eccentricity": 0.00073946,
        "meta_inclination": 98.7847,
        "meta_ra_of_asc_node": 24.6045,
        "meta_arg_of_pericenter": 249.5179,
        "meta_mean_anomaly": 233.8769,
        "meta_ephemeris_type": 0,
        "meta_classification_type": "U",
        "meta_norad_cat_id": 30652,
        "meta_element_set_no": 999,
        "meta_rev_at_epoch": 96762,
        "meta_bstar": 9.5521054e-05,
        "meta_mean_motion_dot": 1.19e-06,
        "meta_mean_motion_ddot": 0,
        "tle_line1": "1 30652U 99025APJ 25351.60375756  .00000119  00000+0  95521-4 0  9992",
        "tle_line2": "2 30652  98.7847  24.6045 0007394 249.5179 233.8769 14.07807297967625"
      },
      "geometry": {
        "type": "Point",
        "coordinates": [
          6.85919095770041,
          64.01231612723147
        ]
      }
    },
    {
      "type": "Feature",
      "properties": {
        "norad_id": 30654,
        "name": "FENGYUN 1C DEB",
        "group": "fengyun-1c-debris",
        "lat": -76.76114229599402,
        "lon": 52.036178996820766,
        "alt_km": 868.0570450536743,
        "timestamp": "2025-12-18T08:58:43.689485+00:00",
        "meta_object_name": "FENGYUN 1C DEB",
        "meta_object_id": "1999-025APL",
        "meta_epoch": "2025-12-17T18:11:57.046560",
        "meta_mean_motion": 14.17119546,
        "meta_eccentricity": 0.00355723,
        "meta_inclination": 99.2424,
        "meta_ra_of_asc_node": 275.1936,
        "meta_arg_of_pericenter": 82.6929,
        "meta_mean_anomaly": 277.8285,
        "meta_ephemeris_type": 0,
        "meta_classification_type": "U",
        "meta_norad_cat_id": 30654,
        "meta_element_set_no": 999,
        "meta_rev_at_epoch": 96751,
        "meta_bstar": 0.00082742045,
        "meta_mean_motion_dot": 1.63e-05,
        "meta_mean_motion_ddot": 0,
        "tle_line1": "1 30654U 99025APL 25351.75829915  .00001630  00000+0  82742-3 0  9990",
        "tle_line2": "2 30654  99.2424 275.1936 0035572  82.6929 277.8285 14.17119546967517"
      },
      "geometry": {
        "type": "Point",
        "coordinates": [
          52.036178996820766,
          -76.76114229599402
        ]
      }
    }
  ]
}